{
    "links": {
        "self": "http://www.neowsapp.com/rest/v1/neo/3475234?api_key=iIulBulltgU6a56xZRHN4H3l9WmuAYTsLGpBGhQ2"
    },
    "id": "3475234",
    "neo_reference_id": "3475234",
    "name": "(2009 VS)",
    "designation": "2009 VS",
    "nasa_jpl_url": "http://ssd.jpl.nasa.gov/sbdb.cgi?sstr=3475234",
    "absolute_magnitude_h": 24.9,
    "estimated_diameter": {
        "kilometers": {
            "estimated_diameter_min": 0.0278326768,
            "estimated_diameter_max": 0.0622357573
        },
        "meters": {
            "estimated_diameter_min": 27.8326768072,
            "estimated_diameter_max": 62.2357573367
        },
        "miles": {
            "estimated_diameter_min": 0.0172944182,
            "estimated_diameter_max": 0.0386714948
        },
        "feet": {
            "estimated_diameter_min": 91.3145593761,
            "estimated_diameter_max": 204.1855621004
        }
    },
    "is_potentially_hazardous_asteroid": false,
    "close_approach_data": [
        {
            "close_approach_date": "2006-11-22",
            "close_approach_date_full": "2006-Nov-22 18:08",
            "epoch_date_close_approach": 1164218880000,
            "relative_velocity": {
                "kilometers_per_second": "23.0020448986",
                "kilometers_per_hour": "82807.3616351375",
                "miles_per_hour": "51453.2742337886"
            },
            "miss_distance": {
                "astronomical": "0.4240951617",
                "lunar": "164.9730179013",
                "kilometers": "63443732.867625579",
                "miles": "39422107.5765238302"
            },
            "orbiting_body": "Earth"
        },
        {
            "close_approach_date": "2009-04-28",
            "close_approach_date_full": "2009-Apr-28 07:38",
            "epoch_date_close_approach": 1240904280000,
            "relative_velocity": {
                "kilometers_per_second": "9.5023904572",
                "kilometers_per_hour": "34208.6056460038",
                "miles_per_hour": "21255.8972137628"
            },
            "miss_distance": {
                "astronomical": "0.4967395706",
                "lunar": "193.2316929634",
                "kilometers": "74311181.706474622",
                "miles": "46174827.1572169036"
            },
            "orbiting_body": "Earth"
        },
        {
            "close_approach_date": "2009-11-02",
            "close_approach_date_full": "2009-Nov-02 19:35",
            "epoch_date_close_approach": 1257190500000,
            "relative_velocity": {
                "kilometers_per_second": "11.6873007862",
                "kilometers_per_hour": "42074.2828304287",
                "miles_per_hour": "26143.3231287183"
            },
            "miss_distance": {
                "astronomical": "0.037825592",
                "lunar": "14.714155288",
                "kilometers": "5658627.99468904",
                "miles": "3516108.391787152"
            },
            "orbiting_body": "Earth"
        },
        {
            "close_approach_date": "2012-06-03",
            "close_approach_date_full": "2012-Jun-03 10:59",
            "epoch_date_close_approach": 1338721140000,
            "relative_velocity": {
                "kilometers_per_second": "8.5068249726",
                "kilometers_per_hour": "30624.5699015107",
                "miles_per_hour": "19028.9167813026"
            },
            "miss_distance": {
                "astronomical": "0.20159881",
                "lunar": "78.42193709",
                "kilometers": "30158752.5705347",
                "miles": "18739779.87219086"
            },
            "orbiting_body": "Earth"
        },
        {
            "close_approach_date": "2015-05-25",
            "close_approach_date_full": "2015-May-25 14:12",
            "epoch_date_close_approach": 1432563120000,
            "relative_velocity": {
                "kilometers_per_second": "18.0872019882",
                "kilometers_per_hour": "65113.9271576906",
                "miles_per_hour": "40459.2621275106"
            },
            "miss_distance": {
                "astronomical": "0.2911646945",
                "lunar": "113.2630661605",
                "kilometers": "43557618.116400715",
                "miles": "27065448.855991267"
            },
            "orbiting_body": "Earth"
        }
    ],
    "orbital_data": {
        "orbit_id": "9",
        "orbit_determination_date": "2017-04-06 08:59:18",
        "first_observation_date": "2009-11-08",
        "last_observation_date": "2009-11-22",
        "data_arc_in_days": 14,
        "observations_used": 44,
        "orbit_uncertainty": "8",
        "minimum_orbit_intersection": ".0375284",
        "jupiter_tisserand_invariant": "4.942",
        "epoch_osculation": "2455145.5",
        "eccentricity": ".3350102442391743",
        "semi_major_axis": "1.290719707717391",
        "inclination": "14.0169401966271",
        "ascending_node_longitude": "227.3320491563595",
        "orbital_period": "535.6071164891982",
        "perihelion_distance": ".8583153831906721",
        "perihelion_argument": "105.6213673963168",
        "aphelion_distance": "1.723124032244109",
        "perihelion_time": "2455085.201299882603",
        "mean_anomaly": "40.52883424057473",
        "mean_motion": ".6721344599745628",
        "equinox": "J2000",
        "orbit_class": {
            "orbit_class_type": "APO",
            "orbit_class_description": "Near-Earth asteroid orbits which cross the Earth’s orbit similar to that of 1862 Apollo",
            "orbit_class_range": "a (semi-major axis) > 1.0 AU; q (perihelion) < 1.017 AU"
        }
    },
    "is_sentry_object": false
}